[
    {
        "Altitude(m)": 704896.4002578182,
        "Argument of Periapsis(deg)": 0.0022780242373254137,
        "Eccentricity": 0.0,
        "Inclination(deg)": 45.0,
        "Latitude(deg)": 33.66735428396049,
        "Longitude(deg)": 36.361573552196695,
        "Mean Anomaly(deg)": 51.397543329496166,
        "RAAN(deg)": 94.99784961170838,
        "Satellite Name": "Constellation 1 421",
        "Satellite Number": 421,
        "Semi-Major Axis(m)": 7083131.272910544,
        "Time(s)": 38
    },
    {
        "Altitude(m)": 704902.3802155844,
        "Argument of Periapsis(deg)": 0.002337972243570819,
        "Eccentricity": 0.0,
        "Inclination(deg)": 45.0,
        "Latitude(deg)": 33.69962324196255,
        "Longitude(deg)": 36.419250958992436,
        "Mean Anomaly(deg)": 51.45824446974608,
        "RAAN(deg)": 94.9977930225428,
        "Satellite Name": "Constellation 1 421",
        "Satellite Number": 421,
        "Semi-Major Axis(m)": 7083131.272910544,
        "Time(s)": 39
    },
    {
        "Altitude(m)": 704908.3602100688,
        "Argument of Periapsis(deg)": 0.0023979202498162246,
        "Eccentricity": 0.0,
        "Inclination(deg)": 45.0,
        "Latitude(deg)": 33.731861117722346,
        "Longitude(deg)": 36.47697452810464,
        "Mean Anomaly(deg)": 51.51894560999595,
        "RAAN(deg)": 94.99773643337723,
        "Satellite Name": "Constellation 1 421",
        "Satellite Number": 421,
        "Semi-Major Axis(m)": 7083131.272910544,
        "Time(s)": 40
    },
    {
        "Altitude(m)": 704914.3402025807,
        "Argument of Periapsis(deg)": 0.00245786825606163,
        "Eccentricity": 0.0,
        "Inclination(deg)": 45.0,
        "Latitude(deg)": 33.76406785088556,
        "Longitude(deg)": 36.53474430587449,
        "Mean Anomaly(deg)": 51.57964675024586,
        "RAAN(deg)": 94.99767984421165,
        "Satellite Name": "Constellation 1 421",
        "Satellite Number": 421,
        "Semi-Major Axis(m)": 7083131.272910544,
        "Time(s)": 41
    },
    {
        "Altitude(m)": 704920.3201544211,
        "Argument of Periapsis(deg)": 0.002517816262307036,
        "Eccentricity": 0.0,
        "Inclination(deg)": 45.0,
        "Latitude(deg)": 33.79624338102846,
        "Longitude(deg)": 36.59256033848807,
        "Mean Anomaly(deg)": 51.64034789049575,
        "RAAN(deg)": 94.99762325504608,
        "Satellite Name": "Constellation 1 421",
        "Satellite Number": 421,
        "Semi-Major Axis(m)": 7083131.272910544,
        "Time(s)": 42
    },
    {
        "Altitude(m)": 704926.3000269289,
        "Argument of Periapsis(deg)": 0.0025777642685524413,
        "Eccentricity": 0.0,
        "Inclination(deg)": 45.0,
        "Latitude(deg)": 33.82838764765783,
        "Longitude(deg)": 36.650422671974994,
        "Mean Anomaly(deg)": 51.70104903074566,
        "RAAN(deg)": 94.99756666588053,
        "Satellite Name": "Constellation 1 421",
        "Satellite Number": 421,
        "Semi-Major Axis(m)": 7083131.272910544,
        "Time(s)": 43
    },
    {
        "Altitude(m)": 704932.279781449,
        "Argument of Periapsis(deg)": 0.002637712274797847,
        "Eccentricity": 0.0,
        "Inclination(deg)": 45.0,
        "Latitude(deg)": 33.86050059021097,
        "Longitude(deg)": 36.70833118411044,
        "Mean Anomaly(deg)": 51.76175017099554,
        "RAAN(deg)": 94.99751007671495,
        "Satellite Name": "Constellation 1 421",
        "Satellite Number": 421,
        "Semi-Major Axis(m)": 7083131.272910544,
        "Time(s)": 44
    },
    {
        "Altitude(m)": 704938.2593793423,
        "Argument of Periapsis(deg)": 0.0026976602810432526,
        "Eccentricity": 0.0,
        "Inclination(deg)": 45.0,
        "Latitude(deg)": 33.89258214805691,
        "Longitude(deg)": 36.766286256802815,
        "Mean Anomaly(deg)": 51.822451311245466,
        "RAAN(deg)": 94.99745348754938,
        "Satellite Name": "Constellation 1 421",
        "Satellite Number": 421,
        "Semi-Major Axis(m)": 7083131.272910544,
        "Time(s)": 45
    },
    {
        "Altitude(m)": 704944.2387819894,
        "Argument of Periapsis(deg)": 0.0027576082872886585,
        "Eccentricity": 0.0,
        "Inclination(deg)": 45.0,
        "Latitude(deg)": 33.92463226049467,
        "Longitude(deg)": 36.82428776750911,
        "Mean Anomaly(deg)": 51.883152451495356,
        "RAAN(deg)": 94.9973968983838,
        "Satellite Name": "Constellation 1 421",
        "Satellite Number": 421,
        "Semi-Major Axis(m)": 7083131.272910544,
        "Time(s)": 46
    },
    {
        "Altitude(m)": 704950.2179507917,
        "Argument of Periapsis(deg)": 0.0028175562935340644,
        "Eccentricity": 0.0,
        "Inclination(deg)": 45.0,
        "Latitude(deg)": 33.95665086675472,
        "Longitude(deg)": 36.882335761623196,
        "Mean Anomaly(deg)": 51.943853591745246,
        "RAAN(deg)": 94.99734030921825,
        "Satellite Name": "Constellation 1 421",
        "Satellite Number": 421,
        "Semi-Major Axis(m)": 7083131.272910544,
        "Time(s)": 47
    },
    {
        "Altitude(m)": 704956.1968471588,
        "Argument of Periapsis(deg)": 0.00287750429977947,
        "Eccentricity": 0.0,
        "Inclination(deg)": 45.0,
        "Latitude(deg)": 33.9886379059987,
        "Longitude(deg)": 36.94043028437698,
        "Mean Anomaly(deg)": 52.00455473199517,
        "RAAN(deg)": 94.99728372005268,
        "Satellite Name": "Constellation 1 421",
        "Satellite Number": 421,
        "Semi-Major Axis(m)": 7083131.272910544,
        "Time(s)": 48
    },
    {
        "Altitude(m)": 704962.1754325313,
        "Argument of Periapsis(deg)": 0.002937452306024875,
        "Eccentricity": 0.0,
        "Inclination(deg)": 45.0,
        "Latitude(deg)": 34.02059331731948,
        "Longitude(deg)": 36.998571380839614,
        "Mean Anomaly(deg)": 52.06525587224505,
        "RAAN(deg)": 94.9972271308871,
        "Satellite Name": "Constellation 1 421",
        "Satellite Number": 421,
        "Semi-Major Axis(m)": 7083131.272910544,
        "Time(s)": 49
    },
    {
        "Altitude(m)": 704968.1536683505,
        "Argument of Periapsis(deg)": 0.0029974003122702807,
        "Eccentricity": 0.0,
        "Inclination(deg)": 45.0,
        "Latitude(deg)": 34.05251703974142,
        "Longitude(deg)": 37.05675909591622,
        "Mean Anomaly(deg)": 52.12595701249494,
        "RAAN(deg)": 94.99717054172153,
        "Satellite Name": "Constellation 1 421",
        "Satellite Number": 421,
        "Semi-Major Axis(m)": 7083131.272910544,
        "Time(s)": 50
    },
    {
        "Altitude(m)": 704974.1315160883,
        "Argument of Periapsis(deg)": 0.0030573483185156866,
        "Eccentricity": 0.0,
        "Inclination(deg)": 45.0,
        "Latitude(deg)": 34.084409012220405,
        "Longitude(deg)": 37.114993474346946,
        "Mean Anomaly(deg)": 52.186658152744826,
        "RAAN(deg)": 94.99711395255598,
        "Satellite Name": "Constellation 1 421",
        "Satellite Number": 421,
        "Semi-Major Axis(m)": 7083131.272910544,
        "Time(s)": 51
    },
    {
        "Altitude(m)": 704980.1089372332,
        "Argument of Periapsis(deg)": 0.003117296324761092,
        "Eccentricity": 0.0,
        "Inclination(deg)": 45.0,
        "Latitude(deg)": 34.116269173643666,
        "Longitude(deg)": 37.173274392608484,
        "Mean Anomaly(deg)": 52.24735929299475,
        "RAAN(deg)": 94.9970573633904,
        "Satellite Name": "Constellation 1 421",
        "Satellite Number": 421,
        "Semi-Major Axis(m)": 7083131.272910544,
        "Time(s)": 52
    },
    {
        "Altitude(m)": 704986.0858932905,
        "Argument of Periapsis(deg)": 0.0031772443310064975,
        "Eccentricity": 0.0,
        "Inclination(deg)": 45.0,
        "Latitude(deg)": 34.148097462831004,
        "Longitude(deg)": 37.2316022313016,
        "Mean Anomaly(deg)": 52.308060433244634,
        "RAAN(deg)": 94.99700077422483,
        "Satellite Name": "Constellation 1 421",
        "Satellite Number": 421,
        "Semi-Major Axis(m)": 7083131.272910544,
        "Time(s)": 53
    },
    {
        "Altitude(m)": 704992.0623457808,
        "Argument of Periapsis(deg)": 0.0032371923372519038,
        "Eccentricity": 0.0,
        "Inclination(deg)": 45.0,
        "Latitude(deg)": 34.17989381853345,
        "Longitude(deg)": 37.28997686656742,
        "Mean Anomaly(deg)": 52.36876157349455,
        "RAAN(deg)": 94.99694418505925,
        "Satellite Name": "Constellation 1 421",
        "Satellite Number": 421,
        "Semi-Major Axis(m)": 7083131.272910544,
        "Time(s)": 54
    },
    {
        "Altitude(m)": 704998.0382562452,
        "Argument of Periapsis(deg)": 0.0032971403434973088,
        "Eccentricity": 0.0,
        "Inclination(deg)": 45.0,
        "Latitude(deg)": 34.21165817943416,
        "Longitude(deg)": 37.348398342474404,
        "Mean Anomaly(deg)": 52.42946271374447,
        "RAAN(deg)": 94.99688759589368,
        "Satellite Name": "Constellation 1 421",
        "Satellite Number": 421,
        "Semi-Major Axis(m)": 7083131.272910544,
        "Time(s)": 55
    },
    {
        "Altitude(m)": 705004.0135862487,
        "Argument of Periapsis(deg)": 0.0033570883497427146,
        "Eccentricity": 0.0,
        "Inclination(deg)": 45.0,
        "Latitude(deg)": 34.24339048414849,
        "Longitude(deg)": 37.40686670292029,
        "Mean Anomaly(deg)": 52.49016385399434,
        "RAAN(deg)": 94.9968310067281,
        "Satellite Name": "Constellation 1 421",
        "Satellite Number": 421,
        "Semi-Major Axis(m)": 7083131.272910544,
        "Time(s)": 56
    }
]